{"type": "FeatureCollection", "features": [ {"type": "Feature", "properties": {"norad_id": 34472, "name": "COSMOS 2251 DEB", "group": "cosmos-2251-debris", "lat": -33.83707247637085, "lon": -93.77100664105862, "alt_km": 767.3968356010937, "timestamp": "2025-12-26T16:33:55.964984+00:00", "meta": {"OBJECT_NAME": "COSMOS 2251 DEB", "OBJECT_ID": "1993-036TR", "EPOCH": "2025-12-25T14:59:08.401056", "MEAN_MOTION": 13.7035431, "ECCENTRICITY": 0.032767, "INCLINATION": 74.0846, "RA_OF_ASC_NODE": 76.9541, "ARG_OF_PERICENTER": 205.149, "MEAN_ANOMALY": 153.3364, "EPHEMERIS_TYPE": 0, "CLASSIFICATION_TYPE": "U", "NORAD_CAT_ID": 34472, "ELEMENT_SET_NO": 999, "REV_AT_EPOCH": 83903, "BSTAR": 0.00075081, "MEAN_MOTION_DOT": 9.47e-06, "MEAN_MOTION_DDOT": 0}, "tle": {"line1": "1 34472U 93036TR  25359.62440279  .00000947  00000+0  75081-3 0  9992", "line2": "2 34472  74.0846  76.9541 0327670 205.1490 153.3364 13.70354310839034"}}, "geometry": {"type": "Point", "coordinates": [-93.77100664105862, -33.83707247637085]}}, {"type": "Feature", "properties": {"norad_id": 34474, "name": "COSMOS 2251 DEB", "group": "cosmos-2251-debris", "lat": 0.6203553074940068, "lon": -57.9997290727716, "alt_km": 731.983277365508, "timestamp": "2025-12-26T16:33:55.964993+00:00", "meta": {"OBJECT_NAME": "COSMOS 2251 DEB", "OBJECT_ID": "1993-036TT", "EPOCH": "2025-12-26T05:08:55.444704", "MEAN_MOTION": 14.06526492, "ECCENTRICITY": 0.01994818, "INCLINATION": 74.0789, "RA_OF_ASC_NODE": 302.6534, "ARG_OF_PERICENTER": 13.3264, "MEAN_ANOMALY": 100.122, "EPHEMERIS_TYPE": 0, "CLASSIFICATION_TYPE": "U", "NORAD_CAT_ID": 34474, "ELEMENT_SET_NO": 999, "REV_AT_EPOCH": 85698, "BSTAR": 0.0024024711, "MEAN_MOTION_DOT": 4.741e-05, "MEAN_MOTION_DDOT": 0}, "tle": {"line1": "1 34474U 93036TT  25360.21453061  .00004741  00000+0  24025-2 0  9991", "line2": "2 34474  74.0789 302.6534 0199481  13.3264 100.1220 14.06526492856984"}}, "geometry": {"type": "Point", "coordinates": [-57.9997290727716, 0.6203553074940068]}}, {"type": "Feature", "properties": {"norad_id": 34476, "name": "COSMOS 2251 DEB", "group": "cosmos-2251-debris", "lat": -6.419896780608932, "lon": -119.16063218960065, "alt_km": 948.1633095758416, "timestamp": "2025-12-26T16:33:55.965002+00:00", "meta": {"OBJECT_NAME": "COSMOS 2251 DEB", "OBJECT_ID": "1993-036TV", "EPOCH": "2025-12-23T04:15:02.567520", "MEAN_MOTION": 13.82132648, "ECCENTRICITY": 0.03222242, "INCLINATION": 74.0063, "RA_OF_ASC_NODE": 64.9101, "ARG_OF_PERICENTER": 282.3311, "MEAN_ANOMALY": 74.192, "EPHEMERIS_TYPE": 0, "CLASSIFICATION_TYPE": "U", "NORAD_CAT_ID": 34476, "ELEMENT_SET_NO": 999, "REV_AT_EPOCH": 83782, "BSTAR": 0.0037798313, "MEAN_MOTION_DOT": 6.03e-05, "MEAN_MOTION_DDOT": 0}, "tle": {"line1": "1 34476U 93036TV  25357.17711305  .00006030  00000+0  37798-2 0  9996", "line2": "2 34476  74.0063  64.9101 0322224 282.3311  74.1920 13.82132648837821"}}, "geometry": {"type": "Point", "coordinates": [-119.16063218960065, -6.419896780608932]}}, {"type": "Feature", "properties": {"norad_id": 34477, "name": "COSMOS 2251 DEB", "group": "cosmos-2251-debris", "lat": -55.2286856357293, "lon": -112.63631211528431, "alt_km": 656.4525517251022, "timestamp": "2025-12-26T16:33:55.965012+00:00", "meta": {"OBJECT_NAME": "COSMOS 2251 DEB", "OBJECT_ID": "1993-036TW", "EPOCH": "2025-12-26T06:05:56.653152", "MEAN_MOTION": 14.5695578, "ECCENTRICITY": 0.00766215, "INCLINATION": 73.9785, "RA_OF_ASC_NODE": 43.7462, "ARG_OF_PERICENTER": 228.381, "MEAN_ANOMALY": 243.6599, "EPHEMERIS_TYPE": 0, "CLASSIFICATION_TYPE": "U", "NORAD_CAT_ID": 34477, "ELEMENT_SET_NO": 999, "REV_AT_EPOCH": 88822, "BSTAR": 0.00074507052, "MEAN_MOTION_DOT": 3.453e-05, "MEAN_MOTION_DDOT": 0}, "tle": {"line1": "1 34477U 93036TW  25360.25412793  .00003453  00000+0  74507-3 0  9995", "line2": "2 34477  73.9785  43.7462 0076621 228.3810 243.6599 14.56955780888224"}}, "geometry": {"type": "Point", "coordinates": [-112.63631211528431, -55.2286856357293]}}, {"type": "Feature", "properties": {"norad_id": 34478, "name": "COSMOS 2251 DEB", "group": "cosmos-2251-debris", "lat": -8.619175219137373, "lon": 160.6443007746036, "alt_km": 519.1731164637122, "timestamp": "2025-12-26T16:33:55.965022+00:00", "meta": {"OBJECT_NAME": "COSMOS 2251 DEB", "OBJECT_ID": "1993-036TX", "EPOCH": "2025-12-26T03:33:48.285792", "MEAN_MOTION": 15.09194751, "ECCENTRICITY": 0.0033509, "INCLINATION": 74.0404, "RA_OF_ASC_NODE": 339.2742, "ARG_OF_PERICENTER": 195.1093, "MEAN_ANOMALY": 291.5751, "EPHEMERIS_TYPE": 0, "CLASSIFICATION_TYPE": "U", "NORAD_CAT_ID": 34478, "ELEMENT_SET_NO": 999, "REV_AT_EPOCH": 89175, "BSTAR": 0.0029301943, "MEAN_MOTION_DOT": 0.00047466, "MEAN_MOTION_DDOT": 0}, "tle": {"line1": "1 34478U 93036TX  25360.14847553  .00047466  00000+0  29302-2 0  9994", "line2": "2 34478  74.0404 339.2742 0033509 195.1093 291.5751 15.09194751891757"}}, "geometry": {"type": "Point", "coordinates": [160.6443007746036, -8.619175219137373]}}, {"type": "Feature", "properties": {"norad_id": 34481, "name": "COSMOS 2251 DEB", "group": "cosmos-2251-debris", "lat": -63.51692453666842, "lon": -7.322754652743732, "alt_km": 791.1494897554003, "timestamp": "2025-12-26T16:33:55.965031+00:00", "meta": {"OBJECT_NAME": "COSMOS 2251 DEB", "OBJECT_ID": "1993-036UA", "EPOCH": "2025-12-26T01:57:47.583072", "MEAN_MOTION": 14.32596743, "ECCENTRICITY": 0.0070175, "INCLINATION": 73.9789, "RA_OF_ASC_NODE": 29.0117, "ARG_OF_PERICENTER": 200.8361, "MEAN_ANOMALY": 193.1339, "EPHEMERIS_TYPE": 0, "CLASSIFICATION_TYPE": "U", "NORAD_CAT_ID": 34481, "ELEMENT_SET_NO": 999, "REV_AT_EPOCH": 87640, "BSTAR": 0.00059012238, "MEAN_MOTION_DOT": 1.62e-05, "MEAN_MOTION_DDOT": 0}, "tle": {"line1": "1 34481U 93036UA  25360.08180073  .00001620  00000+0  59012-3 0  9992", "line2": "2 34481  73.9789  29.0117 0070175 200.8361 193.1339 14.32596743876403"}}, "geometry": {"type": "Point", "coordinates": [-7.322754652743732, -63.51692453666842]}}, {"type": "Feature", "properties": {"norad_id": 34482, "name": "COSMOS 2251 DEB", "group": "cosmos-2251-debris", "lat": 34.503418598907125, "lon": 5.227520412847328, "alt_km": 670.8472222831087, "timestamp": "2025-12-26T16:33:55.965040+00:00", "meta": {"OBJECT_NAME": "COSMOS 2251 DEB", "OBJECT_ID": "1993-036UB", "EPOCH": "2025-12-26T00:15:45.284256", "MEAN_MOTION": 14.6943455, "ECCENTRICITY": 0.00442694, "INCLINATION": 74.036, "RA_OF_ASC_NODE": 197.8906, "ARG_OF_PERICENTER": 255.4286, "MEAN_ANOMALY": 256.9105, "EPHEMERIS_TYPE": 0, "CLASSIFICATION_TYPE": "U", "NORAD_CAT_ID": 34482, "ELEMENT_SET_NO": 999, "REV_AT_EPOCH": 88382, "BSTAR": 0.0016911446, "MEAN_MOTION_DOT": 0.00010147, "MEAN_MOTION_DDOT": 0}, "tle": {"line1": "1 34482U 93036UB  25360.01094079  .00010147  00000+0  16911-2 0  9990", "line2": "2 34482  74.0360 197.8906 0044269 255.4286 256.9105 14.69434550883828"}}, "geometry": {"type": "Point", "coordinates": [5.227520412847328, 34.503418598907125]}}, {"type": "Feature", "properties": {"norad_id": 34544, "name": "COSMOS 2251 DEB", "group": "cosmos-2251-debris", "lat": 35.02865978185908, "lon": -166.88476985848445, "alt_km": 1333.398626552651, "timestamp": "2025-12-26T16:33:55.965050+00:00", "meta": {"OBJECT_NAME": "COSMOS 2251 DEB", "OBJECT_ID": "1993-036UE", "EPOCH": "2025-12-22T13:17:43.726848", "MEAN_MOTION": 13.54671118, "ECCENTRICITY": 0.03836445, "INCLINATION": 73.9138, "RA_OF_ASC_NODE": 188.1407, "ARG_OF_PERICENTER": 214.797, "MEAN_ANOMALY": 178.3987, "EPHEMERIS_TYPE": 0, "CLASSIFICATION_TYPE": "U", "NORAD_CAT_ID": 34544, "ELEMENT_SET_NO": 999, "REV_AT_EPOCH": 83015, "BSTAR": 0.00039748277, "MEAN_MOTION_DOT": 4.13e-06, "MEAN_MOTION_DDOT": 0}, "tle": {"line1": "1 34544U 93036UE  25356.55397832  .00000413  00000+0  39748-3 0  9995", "line2": "2 34544  73.9138 188.1407 0383644 214.7970 178.3987 13.54671118830157"}}, "geometry": {"type": "Point", "coordinates": [-166.88476985848445, 35.02865978185908]}}, {"type": "Feature", "properties": {"norad_id": 34546, "name": "COSMOS 2251 DEB", "group": "cosmos-2251-debris", "lat": -39.20280881855748, "lon": 56.68255939097234, "alt_km": 742.3241287021683, "timestamp": "2025-12-26T16:33:55.965059+00:00", "meta": {"OBJECT_NAME": "COSMOS 2251 DEB", "OBJECT_ID": "1993-036UG", "EPOCH": "2025-12-25T18:29:57.837984", "MEAN_MOTION": 14.45461725, "ECCENTRICITY": 0.00220624, "INCLINATION": 74.0292, "RA_OF_ASC_NODE": 224.888, "ARG_OF_PERICENTER": 297.215, "MEAN_ANOMALY": 181.6117, "EPHEMERIS_TYPE": 0, "CLASSIFICATION_TYPE": "U", "NORAD_CAT_ID": 34546, "ELEMENT_SET_NO": 999, "REV_AT_EPOCH": 88214, "BSTAR": 0.00052557969, "MEAN_MOTION_DOT": 1.83e-05, "MEAN_MOTION_DDOT": 0}, "tle": {"line1": "1 34546U 93036UG  25359.77080831  .00001830  00000+0  52558-3 0  9990", "line2": "2 34546  74.0292 224.8880 0022062 297.2150 181.6117 14.45461725882145"}}, "geometry": {"type": "Point", "coordinates": [56.68255939097234, -39.20280881855748]}}, {"type": "Feature", "properties": {"norad_id": 34547, "name": "COSMOS 2251 DEB", "group": "cosmos-2251-debris", "lat": -31.436099189728807, "lon": 63.48049561444967, "alt_km": 669.5328482529612, "timestamp": "2025-12-26T16:33:55.965068+00:00", "meta": {"OBJECT_NAME": "COSMOS 2251 DEB", "OBJECT_ID": "1993-036UH", "EPOCH": "2025-12-24T22:19:25.423968", "MEAN_MOTION": 14.7260031, "ECCENTRICITY": 0.00159248, "INCLINATION": 74.0301, "RA_OF_ASC_NODE": 76.9883, "ARG_OF_PERICENTER": 154.8954, "MEAN_ANOMALY": 205.2996, "EPHEMERIS_TYPE": 0, "CLASSIFICATION_TYPE": "U", "NORAD_CAT_ID": 34547, "ELEMENT_SET_NO": 999, "REV_AT_EPOCH": 88701, "BSTAR": 0.0017419579, "MEAN_MOTION_DOT": 0.00011095, "MEAN_MOTION_DDOT": 0}, "tle": {"line1": "1 34547U 93036UH  25358.93015537  .00011095  00000+0  17420-2 0  9991", "line2": "2 34547  74.0301  76.9883 0015924 154.8954 205.2996 14.72600310887019"}}, "geometry": {"type": "Point", "coordinates": [63.48049561444967, -31.436099189728807]}}]}